{
  "type": "FeatureCollection",
  "features": [
    {
      "type": "Feature",
      "properties": {
        "region_id": "horn_of_africa",
        "name": "Horn Of Africa"
      },
      "geometry": {
        "type": "Polygon",
        "coordinates": [
          [
            [
              43.85439286258969,
              -1.869390554142612
            ],
            [
              43.7032369032044,
              -1.9882182362960281
            ],
            [
              43.541369083583845,
              -2.0919821562052676
            ],
            [
              43.370285391867476,
              -2.179723324036221
            ],
            [
              43.19156698961203,
              -2.2506308327987097
            ],
            [
              43.00686559864028,
              -2.304049352777697
            ],
            [
              42.81788823576929,
              -2.3394851881137946
            ],
            [
              42.62638143650029,
              -2.3566108395579373
            ],
            [
              42.43411511347559,
              -2.355268031231073
            ],
            [
              42.24286619888301,
              -2.3354691734154636
            ],
            [
              42.05440222198551,
              -2.2973972478584135
            ],
            [
              41.870464973552934,
              -2.2414041166484604
            ],
            [
              41.69275440816983,
              -2.1680072702934536
            ],
            [
              41.5229129331948,
              -2.0778850450548965
            ],
            [
              41.362510229573346,
              -1.971870353740117
            ],
            [
              41.21302874479077,
              -1.8509429878925157
            ],
            [
              41.07584999203991,
              -1.7162205625233107
            ],
            [
              33.11494999203992,
              6.892079437476689
            ],
            [
              32.98348531954888,
              7.049752947009203
            ],
            [
              32.868876252824506,
              7.220072228202029
            ],
            [
              32.77233031000597,
              7.4012428015486815
            ],
            [
              32.69486469662991,
              7.591355858611429
            ],
            [
              32.63729558837933,
              7.788408373177237
            ],
            [
              32.60022953187797,
              7.990324205089725
            ],
            [
              32.58405705413084,
              8.194975974407736
            ],
            [
              32.534057054130834,
              10.011675974407737
            ],
            [
              32.539297236701955,
              10.22146750291894
            ],
            [
              32.56649136225375,
              10.429555043353055
            ],
            [
              32.615340023838165,
              10.633647554753784
            ],
            [
              32.68530539836345,
              10.83149798137951
            ],
            [
              32.77561716801901,
              11.020927992756079
            ],
            [
              32.88528100146389,
              11.199851967065333
            ],
            [
              36.81118100146389,
              16.909551967065333
            ],
            [
              36.925314996093334,
              17.059831647884
            ],
            [
              37.05310461333827,
              17.198685401601445
            ],
            [
              37.19341218852186,
              17.324877063541265
            ],
            [
              37.34498861412176,
              17.437283195043914
            ],
            [
              37.50648446012194,
              17.534903085034216
            ],
            [
              37.67646198749938,
              17.616867658989577
            ],
            [
              37.85340794789383,
              17.68244721599571
            ],
            [
              38.035747055509844,
              17.731057925009544
            ],
            [
              38.22185601131569,
              17.76226702249557
            ],
            [
              38.410077954686614,
              17.775796665162826
            ],
            [
              38.59873721383492,
              17.771526403503096
            ],
            [
              38.78615422370895,
              17.749494254109237
            ],
            [
              39.79275422370895,
              17.582694254109235
            ],
            [
              39.95885677796851,
              17.547871140397884
            ],
            [
              40.12140898965438,
              17.499091162372657
            ],
            [
              40.27924037280348,
              17.436705568896702
            ],
            [
              49.99674037280348,
              13.110405568896702
            ],
            [
              50.17381960765835,
              13.020789829277959
            ],
            [
              50.341145186971374,
              12.914065011584205
            ],
            [
              50.49706945424857,
              12.791282036061247
            ],
            [
              50.64005702181879,
              12.653649947780371
            ],
            [
              50.76869988980997,
              12.502524011160595
            ],
            [
              50.88173131073667,
              12.339392364667663
            ],
            [
              50.97803826317395,
              12.165861367101103
            ],
            [
              51.05667241168949,
              11.98363977976459
            ],
            [
              51.11685944511114,
              11.794521940277926
            ],
            [
              51.15800670117603,
              11.600370093718249
            ],
            [
              51.17970900248127,
              11.40309605507591
            ],
            [
              51.18175264626948,
              11.204642383594958
            ],
            [
              51.16411750876178,
              11.006963254374682
            ],
            [
              51.12697724331682,
              10.812005215589716
            ],
            [
              50.42927724331682,
              7.934605215589716
            ],
            [
              50.36434238586683,
              7.720096057500821
            ],
            [
              50.27581488526145,
              7.514199004941485
            ],
            [
              47.108414885261446,
              1.1551990049414838
            ],
            [
              47.01195054414558,
              0.983316860698447
            ],
            [
              46.89903614179631,
              0.8217644594206903
            ],
            [
              46.77076832661867,
              0.6721108319803282
            ],
            [
              46.62839286258969,
              0.5358094458573881
            ],
            [
              43.85439286258969,
              -1.869390554142612
            ]
          ]
        ]
      }
    },
    {
      "type": "Feature",
      "properties": {
        "region_id": "north_africa",
        "name": "North Africa"
      },
      "geometry": {
        "type": "Polygon",
        "coordinates": [
          [
            [
              25.252645189144513,
              10.09264452483424
            ],
            [
              25.061440052207292,
              10.066065947963175
            ],
            [
              24.868563169867922,
              10.05804513761035
            ],
            [
              24.675811471169084,
              10.068656819304788
            ],
            [
              24.48498071888555,
              10.097802129777872
            ],
            [
              24.29784877937879,
              10.14520953801867
            ],
            [
              24.116159059182728,
              10.210437374980726
            ],
            [
              23.94160426263299,
              10.292877948372421
            ],
            [
              -10.538495737367013,
              28.662677948372423
            ],
            [
              -10.70640359026647,
              28.762968731732116
            ],
            [
              -10.863712933129285,
              28.87918000029191
            ],
            [
              -11.008919444699231,
              29.01020044636768
            ],
            [
              -11.140634540942317,
              29.154777144745676
            ],
            [
              -11.257598653828834,
              29.311527534183394
            ],
            [
              -11.358693276358318,
              29.478952638596763
            ],
            [
              -11.442951658642976,
              29.65545140150172
            ],
            [
              -11.509568052764857,
              29.83933599663248
            ],
            [
              -11.557905417999825,
              30.028847968323845
            ],
            [
              -11.587501512724659,
              30.22217504730981
            ],
            [
              -11.598073314751446,
              30.41746848113213
            ],
            [
              -11.589519727818413,
              30.61286071343113
            ],
            [
              -11.561922548355488,
              30.806483243054874
            ],
            [
              -11.201022548355487,
              32.67808324305487
            ],
            [
              -11.154679407689839,
              32.86797077051623
            ],
            [
              -11.090021961115514,
              33.05242774212379
            ],
            [
              -11.007667767418848,
              33.22969236508257
            ],
            [
              -10.908403411264153,
              33.398071542445265
            ],
            [
              -10.793176990334853,
              33.55595704428748
            ],
            [
              -10.663089059825023,
              33.701840868297595
            ],
            [
              -7.2598890598250225,
              37.1619408682976
            ],
            [
              -7.116152606403961,
              37.29445429700416
            ],
            [
              -6.960165192255697,
              37.41230124629421
            ],
            [
              -6.793417276218844,
              37.514355689249925
            ],
            [
              -6.617502133665232,
              37.59964249626002
            ],
            [
              -6.4341006327629575,
              37.66734675237753
            ],
            [
              -6.244965173790771,
              37.716821543827464
            ],
            [
              -6.051902944963565,
              37.74759413926409
            ],
            [
              2.8683970550364344,
              38.725294139264086
            ],
            [
              2.928504785223331,
              38.730965450145426
            ],
            [
              9.716104785223331,
              39.268165450145425
            ],
            [
              9.943476312470434,
              39.273189417808446
            ],
            [
              10.16994816491659,
              39.25236751339589
            ],
            [
              10.392591888731252,
              39.205968980017126
            ],
            [
              32.80279188873125,
              33.18806898001713
            ],
            [
              32.99462976029703,
              33.126031347619566
            ],
            [
              33.17924679558388,
              33.04499439874883
            ],
            [
              33.354766803810485,
              32.94578168024704
            ],
            [
              33.51940604372645,
              32.82940145220001
            ],
            [
              33.671491351077506,
              32.697036441384014
            ],
            [
              33.80947714231997,
              32.55003182167574
            ],
            [
              33.93196112178228,
              32.38988154357588
            ],
            [
              34.03769853264788,
              32.218213151774066
            ],
            [
              34.12561480693232,
              32.03677124504817
            ],
            [
              39.05791480693232,
              20.396071245048173
            ],
            [
              39.12604857787171,
              20.210141912565966
            ],
            [
              39.17546209845293,
              20.01838625709925
            ],
            [
              39.205670968830354,
              19.82268405585915
            ],
            [
              39.21637905199581,
              19.624953773973388
            ],
            [
              39.20748137680431,
              19.427133757807464
            ],
            [
              39.179065167004325,
              19.231163233390387
            ],
            [
              38.36266516700432,
              15.065363233390386
            ],
            [
              38.309829518894766,
              14.856239771660157
            ],
            [
              38.2347805348111,
              14.654022368983725
            ],
            [
              38.1383911137642,
              14.461063027495852
            ],
            [
              38.02178236660341,
              14.279606068293997
            ],
            [
              37.00278236660341,
              12.867606068293998
            ],
            [
              36.88456913290099,
              12.719182399803762
            ],
            [
              36.75282229072795,
              12.582629393363353
            ],
            [
              36.60872769189528,
              12.459176161013055
            ],
            [
              36.453582330229665,
              12.349933903877249
            ],
            [
              36.288782667346894,
              12.255885910255866
            ],
            [
              36.11581206311699,
              12.177878705057719
            ],
            [
              35.93622742395906,
              12.116614430239526
            ],
            [
              35.75164518914451,
              12.07264452483424
            ],
            [
              25.252645189144513,
              10.09264452483424
            ]
          ]
        ]
      }
    },
    {
      "type": "Feature",
      "properties": {
        "region_id": "west_africa",
        "name": "West Africa"
      },
      "geometry": {
        "type": "Polygon",
        "coordinates": [
          [
            [
              -6.626421484513318,
              2.7480243964158517
            ],
            [
              -6.84314018527539,
              2.7587244691206694
            ],
            [
              -7.057424300173452,
              2.7928390542455537
            ],
            [
              -7.266751625524896,
              2.8499666104430577
            ],
            [
              -10.677151625524894,
              3.9827666104430572
            ],
            [
              -10.853779623197081,
              4.0508758262102615
            ],
            [
              -11.023176931000997,
              4.135379476681085
            ],
            [
              -11.773376931000998,
              4.555079476681086
            ],
            [
              -11.920064171551896,
              4.645657939940448
            ],
            [
              -24.636764171551896,
              13.276657939940447
            ],
            [
              -24.809254412586764,
              13.407925373293303
            ],
            [
              -24.966525889664446,
              13.557088722709693
            ],
            [
              -25.10673129113796,
              13.722395914655365
            ],
            [
              -26.593131291137965,
              15.680895914655366
            ],
            [
              -26.701972315321736,
              15.839623763654961
            ],
            [
              -26.79505269352035,
              16.008078332568402
            ],
            [
              -26.871510480521337,
              16.184699694244507
            ],
            [
              -26.93063766004095,
              16.367852295196464
            ],
            [
              -26.971886701114016,
              16.55584010119452
            ],
            [
              -26.994875628353665,
              16.746922302923984
            ],
            [
              -26.999391559129233,
              16.939329436270544
            ],
            [
              -26.98539267490725,
              17.131279767955462
            ],
            [
              -26.95300860850043,
              17.320995794786008
            ],
            [
              -26.902539243638728,
              17.50672070373434
            ],
            [
              -26.834451937978624,
              17.686734640420806
            ],
            [
              -26.749377195266234,
              17.859370635351848
            ],
            [
              -26.648102826730973,
              18.023030040432015
            ],
            [
              -26.5315666557766,
              18.17619733280445
            ],
            [
              -26.40084783352581,
              18.317454148933006
            ],
            [
              -26.25715684563841,
              18.445492418967216
            ],
            [
              -26.101824302942184,
              18.559126479762984
            ],
            [
              -25.936288619677704,
              18.65730405438963
            ],
            [
              -25.76208269345931,
              18.739115996450685
            ],
            [
              -25.580819710298858,
              18.803804708983744
            ],
            [
              -13.630819710298859,
              22.430504708983744
            ],
            [
              -13.418569794670216,
              22.48244573799786
            ],
            [
              -13.201920270876734,
              22.510921710667283
            ],
            [
              -12.98345727871493,
              22.51559271003823
            ],
            [
              -12.765788605306616,
              22.49640297851128
            ],
            [
              1.6920113946933848,
              20.42080297851128
            ],
            [
              1.842888771411718,
              20.393200858304056
            ],
            [
              8.424388771411717,
              18.92630085830406
            ],
            [
              8.597913077598232,
              18.879348320151585
            ],
            [
              8.76652051654669,
              18.8170044575209
            ],
            [
              8.928848941396998,
              18.739772934409615
            ],
            [
              9.083586932228474,
              18.6482776893424
            ],
            [
              9.229484390767505,
              18.543257894692427
            ],
            [
              13.856884390767505,
              14.885757894692428
            ],
            [
              13.996950813359437,
              14.764079595068486
            ],
            [
              14.125138724527055,
              14.629945070178142
            ],
            [
              14.240344932334137,
              14.4845086888295
            ],
            [
              14.341577966069458,
              14.329022084204475
            ],
            [
              14.427966608896119,
              14.164823382237488
            ],
            [
              14.498767395589672,
              13.993325685632987
            ],
            [
              15.032067395589673,
              12.509925685632986
            ],
            [
              15.088105349256812,
              12.327008066758214
            ],
            [
              15.12641007139571,
              12.139573129225536
            ],
            [
              15.146631082345099,
              11.949335860894113
            ],
            [
              15.14858336436637,
              11.758036890324677
            ],
            [
              15.132249054514611,
              11.567426560416553
            ],
            [
              15.097777608080559,
              11.379248913160666
            ],
            [
              15.04548443110804,
              11.195225732044433
            ],
            [
              14.97584799449904,
              11.017040788117013
            ],
            [
              14.889505456111703,
              10.846324433859877
            ],
            [
              14.787246830908087,
              10.684638685825353
            ],
            [
              9.959246830908086,
              3.8030386858253533
            ],
            [
              9.843275589424287,
              3.6533469736540116
            ],
            [
              9.713667276991156,
              3.515294002326635
            ],
            [
              9.571583732899724,
              3.390117311035887
            ],
            [
              9.418298627341619,
              3.2789390129821654
            ],
            [
              9.255186043930951,
              3.1827557364878625
            ],
            [
              9.083708162096725,
              3.1024296909874884
            ],
            [
              8.905402149763717,
              3.038680937980211
            ],
            [
              8.72186638381892,
              2.9920809362298035
            ],
            [
              8.53474612188648,
              2.9630474190743463
            ],
            [
              7.262546121886482,
              2.8269474190743464
            ],
            [
              7.059678515486683,
              2.8156243964158514
            ],
            [
              -6.626421484513318,
              2.7480243964158517
            ]
          ]
        ]
      }
    },
    {
      "type": "Feature",
      "properties": {
        "region_id": "east_africa",
        "name": "East Africa"
      },
      "geometry": {
        "type": "Polygon",
        "coordinates": [
          [
            [
              35.83302425628121,
              -12.674907923666881
            ],
            [
              35.640079251428695,
              -12.683275394535588
            ],
            [
              35.44722675207406,
              -12.672994200103513
            ],
            [
              35.256265001197065,
              -12.644160206827006
            ],
            [
              35.06897461159278,
              -12.597042275758739
            ],
            [
              34.887101962641346,
              -12.532079755566981
            ],
            [
              34.712342916285316,
              -12.44987838585206
            ],
            [
              34.54632700405427,
              -12.35120464895934
            ],
            [
              34.39060223258383,
              -12.236978622954947
            ],
            [
              32.19060223258384,
              -10.453678622954948
            ],
            [
              32.000406919768864,
              -10.277925942039701
            ],
            [
              28.176206919768862,
              -6.254825942039702
            ],
            [
              28.048562192358403,
              -6.10666457021087
            ],
            [
              27.935997817530453,
              -5.946745121557857
            ],
            [
              27.83959005052845,
              -5.776596624651244
            ],
            [
              27.760260669356352,
              -5.597845910468772
            ],
            [
              27.698768161435922,
              -5.412202057870451
            ],
            [
              27.65570047152484,
              -5.22144005268175
            ],
            [
              27.394300471524836,
              -3.7267400526817496
            ],
            [
              27.36848382244311,
              -3.50994432342257
            ],
            [
              27.26068382244311,
              -1.82564432342257
            ],
            [
              27.257918720566835,
              -1.6252835883328307
            ],
            [
              27.275216416327495,
              -1.4256517780533602
            ],
            [
              27.31240327515253,
              -1.2287528001870098
            ],
            [
              27.36910601470271,
              -1.0365631301170728
            ],
            [
              29.02250601470271,
              3.682336869882927
            ],
            [
              29.094476961690223,
              3.85997323995848
            ],
            [
              29.18312099016226,
              4.029904795003877
            ],
            [
              29.287624026665245,
              4.190570947461551
            ],
            [
              29.40702635457416,
              4.340496199750252
            ],
            [
              29.540231427769413,
              4.478303694680481
            ],
            [
              29.686015940904465,
              4.602727859993627
            ],
            [
              29.843041063782515,
              4.7126260309021175
            ],
            [
              30.009864736670018,
              4.806988943893511
            ],
            [
              30.1849549136315,
              4.884950005427424
            ],
            [
              30.366703632263835,
              4.9457932504050115
            ],
            [
              30.553441780618826,
              4.988959917323451
            ],
            [
              30.743454425700254,
              5.014053579731656
            ],
            [
              41.70045442570025,
              5.929653579731656
            ],
            [
              41.897166630198775,
              5.9363724806643505
            ],
            [
              42.093586664586326,
              5.923723167655101
            ],
            [
              42.28781215982578,
              5.891828151941035
            ],
            [
              42.4779620014498,
              5.840996343407657
            ],
            [
              42.66219454854712,
              5.771720058732109
            ],
            [
              42.83872547043924,
              5.684670253193395
            ],
            [
              43.005845028295575,
              5.580690022330421
            ],
            [
              43.161934634310875,
              5.460786436385705
            ],
            [
              43.305482528066065,
              5.326120786619849
            ],
            [
              43.4350984182435,
              5.177997337963246
            ],
            [
              43.54952694788855,
              5.017850696937956
            ],
            [
              43.64765985280386,
              4.847231917194059
            ],
            [
              43.728546695319366,
              4.667793477231256
            ],
            [
              43.79140406947961,
              4.481273275799637
            ],
            [
              43.835623188493926,
              4.289477799987482
            ],
            [
              43.8607757809636,
              4.094264629016702
            ],
            [
              43.866618238779786,
              3.897524443200284
            ],
            [
              43.853093976518885,
              3.7011627123087707
            ],
            [
              42.16939397651889,
              -10.50213728769123
            ],
            [
              42.13715962851684,
              -10.693821238118696
            ],
            [
              42.08647020195046,
              -10.881470837310829
            ],
            [
              42.01780448113772,
              -11.063313650828064
            ],
            [
              41.93181104454035,
              -11.237632091920135
            ],
            [
              41.829302138649986,
              -11.402779644901571
            ],
            [
              41.71124600595658,
              -11.557196417229173
            ],
            [
              41.57875773946481,
              -11.699423873385156
            ],
            [
              41.4330887501416,
              -11.828118611397825
            ],
            [
              41.27561494677952,
              -11.942065051874383
            ],
            [
              41.10782373992254,
              -12.040186919692289
            ],
            [
              40.93129999260778,
              -12.121557409899417
            ],
            [
              40.747711050624865,
              -12.185407941801603
            ],
            [
              40.558790993688845,
              -12.231135418551235
            ],
            [
              40.36632425628122,
              -12.258307923666882
            ],
            [
              35.83302425628121,
              -12.674907923666881
            ]
          ]
        ]
      }
    },
    {
      "type": "Feature",
      "properties": {
        "region_id": "central_africa",
        "name": "Central Africa"
      },
      "geometry": {
        "type": "Polygon",
        "coordinates": [
          [
            [
              15.928429980723308,
              -14.767137380460648
            ],
            [
              15.748603262612411,
              -14.776078362209143
            ],
            [
              15.568701147163953,
              -14.768810724468311
            ],
            [
              13.234901147163953,
              -14.569010724468312
            ],
            [
              13.034392482710503,
              -14.541568228667838
            ],
            [
              12.837683663748704,
              -14.494002951003141
            ],
            [
              12.646788831960084,
              -14.426801922044802
            ],
            [
              12.46366259842676,
              -14.340653226822159
            ],
            [
              12.290180029970276,
              -14.236438959380477
            ],
            [
              12.128117449960323,
              -14.115226190840266
            ],
            [
              11.97913425017779,
              -13.97825604343864
            ],
            [
              11.844755899964179,
              -13.82693098242582
            ],
            [
              11.726358326630162,
              -13.662800455937658
            ],
            [
              11.625153827055474,
              -13.487545029880426
            ],
            [
              11.542178654734121,
              -13.302959180274051
            ],
            [
              6.91817865473412,
              -1.4459591802740512
            ],
            [
              6.858715553126422,
              -1.2696634897602421
            ],
            [
              6.815892242997854,
              -1.088604949348087
            ],
            [
              6.790079317605574,
              -0.9043504410470944
            ],
            [
              6.781500162205637,
              -0.7184945047976122
            ],
            [
              6.783300162205638,
              3.7508054952023877
            ],
            [
              6.791838302006256,
              3.9346085193696974
            ],
            [
              6.817232398417032,
              4.116848996190252
            ],
            [
              6.859267512939433,
              4.295984421696744
            ],
            [
              6.917587855619172,
              4.470498573426687
            ],
            [
              6.991699796492544,
              4.63891434390049
            ],
            [
              7.080976043726161,
              4.799806243025913
            ],
            [
              8.44367604372616,
              7.009506243025913
            ],
            [
              8.582082285485246,
              7.206360090893643
            ],
            [
              13.480582285485244,
              13.351460090893642
            ],
            [
              13.614823080116485,
              13.503379245074225
            ],
            [
              13.763753812373073,
              13.640927990396337
            ],
            [
              13.925844218223377,
              13.76269301280201
            ],
            [
              14.099428817922645,
              13.867423176066543
            ],
            [
              14.282724028825847,
              13.95404237722957
            ],
            [
              14.473846491708432,
              14.021660603558464
            ],
            [
              20.261846491708432,
              15.744760603558465
            ],
            [
              20.45703854448135,
              15.792341064379336
            ],
            [
              20.656019363569214,
              15.82009843011809
            ],
            [
              20.856781041599376,
              15.827752602323192
            ],
            [
              21.057297700623856,
              15.815226343053457
            ],
            [
              21.255545935171515,
              15.782646054282974
            ],
            [
              21.44952523035058,
              15.730340502383926
            ],
            [
              21.63727814896326,
              15.65883750055846
            ],
            [
              21.816910083925077,
              15.568858582697079
            ],
            [
              21.986608376668105,
              15.46131172240942
            ],
            [
              22.144660608605037,
              15.337282170699407
            ],
            [
              22.289471881075666,
              15.198021504741396
            ],
            [
              22.419580909404576,
              15.044934998265681
            ],
            [
              31.827080909404575,
              2.777034998265681
            ],
            [
              31.939900760970936,
              2.6137254874256524
            ],
            [
              32.035977306023675,
              2.440037224353577
            ],
            [
              32.114364231060534,
              2.2576809652848784
            ],
            [
              32.174289457885735,
              2.068452842564673
            ],
            [
              32.21516274825498,
              1.8742166735006782
            ],
            [
              32.23658151747357,
              1.6768856025477592
            ],
            [
              32.23833479968607,
              1.4784032576408421
            ],
            [
              32.22040532580117,
              1.280724606278396
            ],
            [
              31.16370532580117,
              -6.212575393721604
            ],
            [
              31.137413220787447,
              -6.359259528997426
            ],
            [
              31.100272118390706,
              -6.503578789113403
            ],
            [
              29.396372118390705,
              -12.231178789113402
            ],
            [
              29.330687230337528,
              -12.417692964283624
            ],
            [
              29.246905064498836,
              -12.596809101874193
            ],
            [
              29.145844634317708,
              -12.76677625019878
            ],
            [
              29.02849385709198,
              -12.925932893611815
            ],
            [
              28.89599989657831,
              -13.072723194672164
            ],
            [
              28.749657948880802,
              -13.205712203248385
            ],
            [
              28.590898581247888,
              -13.32359988388883
            ],
            [
              28.421273747547136,
              -13.425233824331867
            ],
            [
              28.24244161712391,
              -13.509620500924065
            ],
            [
              28.056150365349488,
              -13.575934990821114
            ],
            [
              27.864221084314355,
              -13.623529036029764
            ],
            [
              27.668529980723306,
              -13.651937380460648
            ],
            [
              15.928429980723308,
              -14.767137380460648
            ]
          ]
        ]
      }
    },
    {
      "type": "Feature",
      "properties": {
        "region_id": "southern_africa",
        "name": "Southern Africa"
      },
      "geometry": {
        "type": "Polygon",
        "coordinates": [
          [
            [
              22.4617,
              -35.9608
            ],
            [
              22.44391786159872,
              -35.96072094732614
            ],
            [
              18.40631786159872,
              -35.92482094732614
            ],
            [
              18.20364534459509,
              -35.912712804292774
            ],
            [
              18.003244764723892,
              -35.88011888057084
            ],
            [
              17.807181388050545,
              -35.82737507900376
            ],
            [
              17.61747578277287,
              -35.7550249608108
            ],
            [
              17.436082995873527,
              -35.663814143814164
            ],
            [
              17.264872405013673,
              -35.554682618333565
            ],
            [
              17.10560845330804,
              -35.42875505993824
            ],
            [
              16.95993246552282,
              -35.28732923889023
            ],
            [
              16.829345733092953,
              -35.1318626457276
            ],
            [
              16.715194042279414,
              -34.96395747082012
            ],
            [
              16.618653804914437,
              -34.78534409269346
            ],
            [
              16.540719934666956,
              -34.59786324528618
            ],
            [
              12.621919934666959,
              -23.63056324528618
            ],
            [
              12.59132856821212,
              -23.537870073586298
            ],
            [
              10.238228568212119,
              -15.7763700735863
            ],
            [
              10.192016282645831,
              -15.59318915147557
            ],
            [
              10.163294140861225,
              -15.406465119455312
            ],
            [
              10.152318422096355,
              -15.217864061239323
            ],
            [
              10.15918705946719,
              -15.029068808695026
            ],
            [
              10.183838766139163,
              -14.841763926428822
            ],
            [
              10.22605358217161,
              -14.65762068091071
            ],
            [
              10.285454837155743,
              -14.47828212825427
            ],
            [
              13.199954837155744,
              -6.89888212825427
            ],
            [
              13.277169400013248,
              -6.7236265250210066
            ],
            [
              13.370792444163754,
              -6.556559649830492
            ],
            [
              13.479965525516644,
              -6.399213364555479
            ],
            [
              13.603687619298663,
              -6.2530304014848
            ],
            [
              13.74082429860403,
              -6.119351134689133
            ],
            [
              13.890118136129189,
              -5.99940128992499
            ],
            [
              14.050200233717156,
              -5.8942807057667626
            ],
            [
              14.219602773995243,
              -5.804953249017665
            ],
            [
              14.396772479018294,
              -5.7322379768667915
            ],
            [
              14.580084852513052,
              -5.676801626827772
            ],
            [
              14.767859075134329,
              -5.639152503319975
            ],
            [
              14.958373416156084,
              -5.61963581694711
            ],
            [
              15.149881020285243,
              -5.618430519208106
            ],
            [
              15.340625924846542,
              -5.635547661663302
            ],
            [
              49.57392592484654,
              -10.3688476616633
            ],
            [
              49.77253343357398,
              -10.406623517134474
            ],
            [
              49.966312600664814,
              -10.464256772994984
            ],
            [
              50.15328339263507,
              -10.541158533244777
            ],
            [
              50.331535343905884,
              -10.636543016509325
            ],
            [
              50.49924707792066,
              -10.749435585145429
            ],
            [
              50.65470491795144,
              -10.87868270407836
            ],
            [
              50.796320397429675,
              -11.02296372761108
            ],
            [
              50.92264649088082,
              -11.180804393768035
            ],
            [
              51.03239239961539,
              -11.350591888288463
            ],
            [
              51.124436741096304,
              -11.530591324345481
            ],
            [
              51.19783900721385,
              -11.718963469601377
            ],
            [
              51.251849174387615,
              -11.913783539464216
            ],
            [
              51.2859153672995,
              -12.11306086451649
            ],
            [
              51.299689497949906,
              -12.314759231154213
            ],
            [
              51.40188949794991,
              -18.113959231154215
            ],
            [
              51.3945686262073,
              -18.323748724729853
            ],
            [
              51.365299210630006,
              -18.531615336020742
            ],
            [
              51.31440369207677,
              -18.735269142685365
            ],
            [
              51.242442751189365,
              -18.932466631930012
            ],
            [
              51.15020913176262,
              -19.121035415733793
            ],
            [
              51.03871890763569,
              -19.298898162541324
            ],
            [
              48.71981890763569,
              -22.599698162541323
            ],
            [
              48.591507366668026,
              -22.76351076856199
            ],
            [
              48.446870076156344,
              -22.91310513887792
            ],
            [
              48.28747267769067,
              -23.046861973466488
            ],
            [
              48.11504058520467,
              -23.163333407379174
            ],
            [
              28.886340585204668,
              -34.74253340737918
            ],
            [
              28.755198829223,
              -34.8149552320523
            ],
            [
              28.61900402015671,
              -34.87735759446219
            ],
            [
              26.366604020156707,
              -35.808957594462186
            ],
            [
              26.182021416072736,
              -35.87490739653328
            ],
            [
              25.99186961074455,
              -35.92247214244944
            ],
            [
              25.79797501768754,
              -35.95119497146909
            ],
            [
              25.6022,
              -35.9608
            ],
            [
              22.4617,
              -35.9608
            ]
          ]
        ]
      }
    }
  ]
}